{"type": "FeatureCollection", "features": [ {"type": "Feature", "properties": {"norad_id": 37594, "name": "FENGYUN 1C DEB", "group": "fengyun-1c-debris", "lat": 63.29522195141472, "lon": -132.36593106097112, "alt_km": 874.0143248759841, "timestamp": "2025-12-26T21:25:53.299939+00:00", "meta": {"OBJECT_NAME": "FENGYUN 1C DEB", "OBJECT_ID": "1999-025EKN", "EPOCH": "2025-12-23T12:53:53.738592", "MEAN_MOTION": 14.11128547, "ECCENTRICITY": 0.00852864, "INCLINATION": 98.7335, "RA_OF_ASC_NODE": 26.5783, "ARG_OF_PERICENTER": 238.8668, "MEAN_ANOMALY": 120.4117, "EPHEMERIS_TYPE": 0, "CLASSIFICATION_TYPE": "U", "NORAD_CAT_ID": 37594, "ELEMENT_SET_NO": 999, "REV_AT_EPOCH": 77914, "BSTAR": 0.00023559331, "MEAN_MOTION_DOT": 3.96e-06, "MEAN_MOTION_DDOT": 0}, "tle": {"line1": "1 37594U 99025EKN 25357.53742753  .00000396  00000+0  23559-3 0  9995", "line2": "2 37594  98.7335  26.5783 0085286 238.8668 120.4117 14.11128547779144"}}, "geometry": {"type": "Point", "coordinates": [-132.36593106097112, 63.29522195141472]}}, {"type": "Feature", "properties": {"norad_id": 37595, "name": "FENGYUN 1C DEB", "group": "fengyun-1c-debris", "lat": -66.84496408529667, "lon": 9.882783921862863, "alt_km": 657.3797895684893, "timestamp": "2025-12-26T21:25:53.299949+00:00", "meta": {"OBJECT_NAME": "FENGYUN 1C DEB", "OBJECT_ID": "1999-025EKP", "EPOCH": "2025-12-23T19:12:19.083168", "MEAN_MOTION": 14.71564982, "ECCENTRICITY": 0.00285537, "INCLINATION": 99.0458, "RA_OF_ASC_NODE": 208.3187, "ARG_OF_PERICENTER": 332.5627, "MEAN_ANOMALY": 100.7823, "EPHEMERIS_TYPE": 0, "CLASSIFICATION_TYPE": "U", "NORAD_CAT_ID": 37595, "ELEMENT_SET_NO": 999, "REV_AT_EPOCH": 62768, "BSTAR": 0.0037494781, "MEAN_MOTION_DOT": 0.00023466, "MEAN_MOTION_DDOT": 0}, "tle": {"line1": "1 37595U 99025EKP 25357.80022087  .00023466  00000+0  37495-2 0  9993", "line2": "2 37595  99.0458 208.3187 0028553 332.5627 100.7823 14.71564982627683"}}, "geometry": {"type": "Point", "coordinates": [9.882783921862863, -66.84496408529667]}}, {"type": "Feature", "properties": {"norad_id": 37600, "name": "FENGYUN 1C DEB", "group": "fengyun-1c-debris", "lat": -74.68326846308037, "lon": -168.0454920736845, "alt_km": 946.0992083920173, "timestamp": "2025-12-26T21:25:53.299961+00:00", "meta": {"OBJECT_NAME": "FENGYUN 1C DEB", "OBJECT_ID": "1999-025EKU", "EPOCH": "2025-12-26T04:25:23.698848", "MEAN_MOTION": 13.82661386, "ECCENTRICITY": 0.03566694, "INCLINATION": 98.9338, "RA_OF_ASC_NODE": 156.2285, "ARG_OF_PERICENTER": 13.0428, "MEAN_ANOMALY": 347.9661, "EPHEMERIS_TYPE": 0, "CLASSIFICATION_TYPE": "U", "NORAD_CAT_ID": 37600, "ELEMENT_SET_NO": 999, "REV_AT_EPOCH": 88673, "BSTAR": 0.0025662055, "MEAN_MOTION_DOT": 4.504e-05, "MEAN_MOTION_DDOT": 0}, "tle": {"line1": "1 37600U 99025EKU 25360.18430207  .00004504  00000+0  25662-2 0  9997", "line2": "2 37600  98.9338 156.2285 0356669  13.0428 347.9661 13.82661386886732"}}, "geometry": {"type": "Point", "coordinates": [-168.0454920736845, -74.68326846308037]}}, {"type": "Feature", "properties": {"norad_id": 37683, "name": "FENGYUN 1C DEB", "group": "fengyun-1c-debris", "lat": -24.07792336871263, "lon": 94.04515490510526, "alt_km": 1310.9400237224609, "timestamp": "2025-12-26T21:25:53.299975+00:00", "meta": {"OBJECT_NAME": "FENGYUN 1C DEB", "OBJECT_ID": "1999-025EKY", "EPOCH": "2025-12-22T12:45:28.700352", "MEAN_MOTION": 13.31943553, "ECCENTRICITY": 0.05857029, "INCLINATION": 98.0031, "RA_OF_ASC_NODE": 274.2271, "ARG_OF_PERICENTER": 100.084, "MEAN_ANOMALY": 76.0427, "EPHEMERIS_TYPE": 0, "CLASSIFICATION_TYPE": "U", "NORAD_CAT_ID": 37683, "ELEMENT_SET_NO": 999, "REV_AT_EPOCH": 29370, "BSTAR": 0.0017018804, "MEAN_MOTION_DOT": 2.128e-05, "MEAN_MOTION_DDOT": 0}, "tle": {"line1": "1 37683U 99025EKY 25356.53158218  .00002128  00000+0  17019-2 0  9998", "line2": "2 37683  98.0031 274.2271 0585702 100.0840  76.0427 13.31943553293709"}}, "geometry": {"type": "Point", "coordinates": [94.04515490510526, -24.07792336871263]}}, {"type": "Feature", "properties": {"norad_id": 37686, "name": "FENGYUN 1C DEB", "group": "fengyun-1c-debris", "lat": 34.29898216872678, "lon": 11.484226686554589, "alt_km": 858.6091381444785, "timestamp": "2025-12-26T21:25:53.299989+00:00", "meta": {"OBJECT_NAME": "FENGYUN 1C DEB", "OBJECT_ID": "1999-025ELB", "EPOCH": "2025-12-15T20:02:19.291200", "MEAN_MOTION": 13.35366399, "ECCENTRICITY": 0.03959537, "INCLINATION": 99.0216, "RA_OF_ASC_NODE": 7.9106, "ARG_OF_PERICENTER": 34.5937, "MEAN_ANOMALY": 145.9696, "EPHEMERIS_TYPE": 0, "CLASSIFICATION_TYPE": "U", "NORAD_CAT_ID": 37686, "ELEMENT_SET_NO": 999, "REV_AT_EPOCH": 60668, "BSTAR": 0.00056833835, "MEAN_MOTION_DOT": 4.14e-06, "MEAN_MOTION_DDOT": 0}, "tle": {"line1": "1 37686U 99025ELB 25349.83494550  .00000414  00000+0  56834-3 0  9993", "line2": "2 37686  99.0216   7.9106 0395953  34.5937 145.9696 13.35366399606681"}}, "geometry": {"type": "Point", "coordinates": [11.484226686554589, 34.29898216872678]}}, {"type": "Feature", "properties": {"norad_id": 37687, "name": "FENGYUN 1C DEB", "group": "fengyun-1c-debris", "lat": 68.63051050135594, "lon": -124.07284765011632, "alt_km": 1147.9313745780928, "timestamp": "2025-12-26T21:25:53.300001+00:00", "meta": {"OBJECT_NAME": "FENGYUN 1C DEB", "OBJECT_ID": "1999-025ELC", "EPOCH": "2025-12-24T08:18:17.269344", "MEAN_MOTION": 13.85435781, "ECCENTRICITY": 0.03336335, "INCLINATION": 98.2045, "RA_OF_ASC_NODE": 32.0557, "ARG_OF_PERICENTER": 326.5456, "MEAN_ANOMALY": 45.1288, "EPHEMERIS_TYPE": 0, "CLASSIFICATION_TYPE": "U", "NORAD_CAT_ID": 37687, "ELEMENT_SET_NO": 999, "REV_AT_EPOCH": 83415, "BSTAR": 0.0031735951, "MEAN_MOTION_DOT": 5.552e-05, "MEAN_MOTION_DDOT": 0}, "tle": {"line1": "1 37687U 99025ELC 25358.34603321  .00005552  00000+0  31736-2 0  9999", "line2": "2 37687  98.2045  32.0557 0333633 326.5456  45.1288 13.85435781834159"}}, "geometry": {"type": "Point", "coordinates": [-124.07284765011632, 68.63051050135594]}}, {"type": "Feature", "properties": {"norad_id": 37689, "name": "FENGYUN 1C DEB", "group": "fengyun-1c-debris", "lat": 58.2116673749241, "lon": -122.71470320276771, "alt_km": 720.7410141471028, "timestamp": "2025-12-26T21:25:53.300011+00:00", "meta": {"OBJECT_NAME": "FENGYUN 1C DEB", "OBJECT_ID": "1999-025ELE", "EPOCH": "2025-12-26T14:14:44.690784", "MEAN_MOTION": 14.48876004, "ECCENTRICITY": 0.00213901, "INCLINATION": 98.9193, "RA_OF_ASC_NODE": 42.2903, "ARG_OF_PERICENTER": 200.5386, "MEAN_ANOMALY": 159.4948, "EPHEMERIS_TYPE": 0, "CLASSIFICATION_TYPE": "U", "NORAD_CAT_ID": 37689, "ELEMENT_SET_NO": 999, "REV_AT_EPOCH": 58013, "BSTAR": 0.0023871144, "MEAN_MOTION_DOT": 9.016e-05, "MEAN_MOTION_DDOT": 0}, "tle": {"line1": "1 37689U 99025ELE 25360.59357281  .00009016  00000+0  23871-2 0  9992", "line2": "2 37689  98.9193  42.2903 0021390 200.5386 159.4948 14.48876004580132"}}, "geometry": {"type": "Point", "coordinates": [-122.71470320276771, 58.2116673749241]}}, {"type": "Feature", "properties": {"norad_id": 37691, "name": "FENGYUN 1C DEB", "group": "fengyun-1c-debris", "lat": -48.05113041652204, "lon": -85.88493336724964, "alt_km": 885.2536501179711, "timestamp": "2025-12-26T21:25:53.300029+00:00", "meta": {"OBJECT_NAME": "FENGYUN 1C DEB", "OBJECT_ID": "1999-025ELG", "EPOCH": "2025-12-26T11:46:47.323200", "MEAN_MOTION": 14.5796237, "ECCENTRICITY": 0.02802978, "INCLINATION": 98.3718, "RA_OF_ASC_NODE": 264.2797, "ARG_OF_PERICENTER": 107.5128, "MEAN_ANOMALY": 255.6908, "EPHEMERIS_TYPE": 0, "CLASSIFICATION_TYPE": "U", "NORAD_CAT_ID": 37691, "ELEMENT_SET_NO": 999, "REV_AT_EPOCH": 85834, "BSTAR": 0.0015076945, "MEAN_MOTION_DOT": 0.00011909, "MEAN_MOTION_DDOT": 0}, "tle": {"line1": "1 37691U 99025ELG 25360.49082550  .00011909  00000+0  15077-2 0  9991", "line2": "2 37691  98.3718 264.2797 0280297 107.5128 255.6908 14.57962370858340"}}, "geometry": {"type": "Point", "coordinates": [-85.88493336724964, -48.05113041652204]}}, {"type": "Feature", "properties": {"norad_id": 37693, "name": "FENGYUN 1C DEB", "group": "fengyun-1c-debris", "lat": 31.781813933956485, "lon": -5.264111602145286, "alt_km": 810.3308828846375, "timestamp": "2025-12-26T21:25:53.300040+00:00", "meta": {"OBJECT_NAME": "FENGYUN 1C DEB", "OBJECT_ID": "1999-025ELJ", "EPOCH": "2025-12-24T12:01:58.795680", "MEAN_MOTION": 14.08514338, "ECCENTRICITY": 0.00721892, "INCLINATION": 98.6932, "RA_OF_ASC_NODE": 357.8702, "ARG_OF_PERICENTER": 41.8803, "MEAN_ANOMALY": 110.2059, "EPHEMERIS_TYPE": 0, "CLASSIFICATION_TYPE": "U", "NORAD_CAT_ID": 37693, "ELEMENT_SET_NO": 999, "REV_AT_EPOCH": 62314, "BSTAR": 0.00060814619, "MEAN_MOTION_DOT": 1.027e-05, "MEAN_MOTION_DDOT": 0}, "tle": {"line1": "1 37693U 99025ELJ 25358.50137495  .00001027  00000+0  60815-3 0  9992", "line2": "2 37693  98.6932 357.8702 0072189  41.8803 110.2059 14.08514338623141"}}, "geometry": {"type": "Point", "coordinates": [-5.264111602145286, 31.781813933956485]}}, {"type": "Feature", "properties": {"norad_id": 37694, "name": "FENGYUN 1C DEB", "group": "fengyun-1c-debris", "lat": -1.0213109238982605, "lon": -112.74499112804406, "alt_km": 904.5155513159434, "timestamp": "2025-12-26T21:25:53.300050+00:00", "meta": {"OBJECT_NAME": "FENGYUN 1C DEB", "OBJECT_ID": "1999-025ELK", "EPOCH": "2025-12-14T10:20:27.757248", "MEAN_MOTION": 14.16668534, "ECCENTRICITY": 0.01472645, "INCLINATION": 98.1988, "RA_OF_ASC_NODE": 55.9107, "ARG_OF_PERICENTER": 88.6122, "MEAN_ANOMALY": 288.1431, "EPHEMERIS_TYPE": 0, "CLASSIFICATION_TYPE": "U", "NORAD_CAT_ID": 37694, "ELEMENT_SET_NO": 999, "REV_AT_EPOCH": 51728, "BSTAR": 0.0018272074, "MEAN_MOTION_DOT": 4.021e-05, "MEAN_MOTION_DDOT": 0}, "tle": {"line1": "1 37694U 99025ELK 25348.43087682  .00004021  00000+0  18272-2 0  9992", "line2": "2 37694  98.1988  55.9107 0147264  88.6122 288.1431 14.16668534517286"}}, "geometry": {"type": "Point", "coordinates": [-112.74499112804406, -1.0213109238982605]}}]}